[{"OBJECT_NAME":"KUIPER-00117","OBJECT_ID":"2025-228C","EPOCH":"2026-03-09T05:24:28.080864","MEAN_MOTION":14.79927968,"ECCENTRICITY":7.633e-5,"INCLINATION":51.8987,"RA_OF_ASC_NODE":0.1497,"ARG_OF_PERICENTER":80.7222,"MEAN_ANOMALY":279.3826,"EPHEMERIS_TYPE":0,"CLASSIFICATION_TYPE":"U","NORAD_CAT_ID":65949,"ELEMENT_SET_NO":999,"REV_AT_EPOCH":2319,"BSTAR":0.00013496611,"MEAN_MOTION_DOT":8.08e-6,"MEAN_MOTION_DDOT":0},{"OBJECT_NAME":"PROITERES","OBJECT_ID":"2012-047B","EPOCH":"2026-03-09T20:04:01.587072","MEAN_MOTION":14.82270708,"ECCENTRICITY":0.0011422,"INCLINATION":98.2359,"RA_OF_ASC_NODE":347.7082,"ARG_OF_PERICENTER":21.2564,"MEAN_ANOMALY":338.9121,"EPHEMERIS_TYPE":0,"CLASSIFICATION_TYPE":"U","NORAD_CAT_ID":38756,"ELEMENT_SET_NO":999,"REV_AT_EPOCH":72759,"BSTAR":0.00018266794,"MEAN_MOTION_DOT":1.403e-5,"MEAN_MOTION_DDOT":0}]
